{"type": "FeatureCollection", "features": [ {"type": "Feature", "properties": {"norad_id": 30609, "name": "FENGYUN 1C DEB", "group": "fengyun-1c-debris", "lat": 37.51238720955814, "lon": -111.20095137884547, "alt_km": 785.0633105829756, "timestamp": "2025-12-04T10:51:50.382987+00:00", "meta": {"OBJECT_NAME": "FENGYUN 1C DEB", "OBJECT_ID": "1999-025AMQ", "EPOCH": "2025-12-03T17:40:08.930208", "MEAN_MOTION": 14.11089299, "ECCENTRICITY": 0.01185737, "INCLINATION": 98.5669, "RA_OF_ASC_NODE": 254.7605, "ARG_OF_PERICENTER": 78.3605, "MEAN_ANOMALY": 283.0847, "EPHEMERIS_TYPE": 0, "CLASSIFICATION_TYPE": "U", "NORAD_CAT_ID": 30609, "ELEMENT_SET_NO": 999, "REV_AT_EPOCH": 95601, "BSTAR": 0.0029124573, "MEAN_MOTION_DOT": 5.562e-05, "MEAN_MOTION_DDOT": 0}, "tle": {"line1": "1 30609U 99025AMQ 25337.73621447  .00005562  00000+0  29125-2 0  9995", "line2": "2 30609  98.5669 254.7605 0118573  78.3605 283.0847 14.11089299956013"}}, "geometry": {"type": "Point", "coordinates": [-111.20095137884547, 37.51238720955814]}}, {"type": "Feature", "properties": {"norad_id": 30612, "name": "FENGYUN 1C DEB", "group": "fengyun-1c-debris", "lat": 35.749883873733296, "lon": -40.80187322779236, "alt_km": 459.1401051862176, "timestamp": "2025-12-04T10:51:50.382997+00:00", "meta": {"OBJECT_NAME": "FENGYUN 1C DEB", "OBJECT_ID": "1999-025AMT", "EPOCH": "2025-12-03T11:41:15.566208", "MEAN_MOTION": 15.26937126, "ECCENTRICITY": 0.00354753, "INCLINATION": 99.0823, "RA_OF_ASC_NODE": 324.6375, "ARG_OF_PERICENTER": 18.5185, "MEAN_ANOMALY": 112.2083, "EPHEMERIS_TYPE": 0, "CLASSIFICATION_TYPE": "U", "NORAD_CAT_ID": 30612, "ELEMENT_SET_NO": 999, "REV_AT_EPOCH": 116, "BSTAR": 0.0047834102, "MEAN_MOTION_DOT": 0.00130859, "MEAN_MOTION_DDOT": 0}, "tle": {"line1": "1 30612U 99025AMT 25337.48698572  .00130859  00000+0  47834-2 0  9999", "line2": "2 30612  99.0823 324.6375 0035475  18.5185 112.2083 15.26937126  1164"}}, "geometry": {"type": "Point", "coordinates": [-40.80187322779236, 35.749883873733296]}}, {"type": "Feature", "properties": {"norad_id": 30613, "name": "FENGYUN 1C DEB", "group": "fengyun-1c-debris", "lat": 21.524512102812995, "lon": -79.27824543893323, "alt_km": 480.5707954241525, "timestamp": "2025-12-04T10:51:50.383007+00:00", "meta": {"OBJECT_NAME": "FENGYUN 1C DEB", "OBJECT_ID": "1999-025AMU", "EPOCH": "2025-12-03T07:12:46.253376", "MEAN_MOTION": 15.14584783, "ECCENTRICITY": 0.00729989, "INCLINATION": 98.3084, "RA_OF_ASC_NODE": 96.1598, "ARG_OF_PERICENTER": 198.2659, "MEAN_ANOMALY": 161.5947, "EPHEMERIS_TYPE": 0, "CLASSIFICATION_TYPE": "U", "NORAD_CAT_ID": 30613, "ELEMENT_SET_NO": 999, "REV_AT_EPOCH": 99253, "BSTAR": 0.0069533496, "MEAN_MOTION_DOT": 0.00139417, "MEAN_MOTION_DDOT": 0}, "tle": {"line1": "1 30613U 99025AMU 25337.30053534  .00139417  00000+0  69533-2 0  9993", "line2": "2 30613  98.3084  96.1598 0072998 198.2659 161.5947 15.14584783992537"}}, "geometry": {"type": "Point", "coordinates": [-79.27824543893323, 21.524512102812995]}}, {"type": "Feature", "properties": {"norad_id": 30616, "name": "FENGYUN 1C DEB", "group": "fengyun-1c-debris", "lat": -32.97900296209168, "lon": -147.7645741635818, "alt_km": 994.568596418585, "timestamp": "2025-12-04T10:51:50.383018+00:00", "meta": {"OBJECT_NAME": "FENGYUN 1C DEB", "OBJECT_ID": "1999-025AMX", "EPOCH": "2025-12-03T10:23:35.059488", "MEAN_MOTION": 13.35969634, "ECCENTRICITY": 0.03795754, "INCLINATION": 98.6405, "RA_OF_ASC_NODE": 37.0316, "ARG_OF_PERICENTER": 279.3277, "MEAN_ANOMALY": 76.513, "EPHEMERIS_TYPE": 0, "CLASSIFICATION_TYPE": "U", "NORAD_CAT_ID": 30616, "ELEMENT_SET_NO": 999, "REV_AT_EPOCH": 91576, "BSTAR": 0.0021260334, "MEAN_MOTION_DOT": 1.603e-05, "MEAN_MOTION_DDOT": 0}, "tle": {"line1": "1 30616U 99025AMX 25337.43304467  .00001603  00000+0  21260-2 0  9994", "line2": "2 30616  98.6405  37.0316 0379575 279.3277  76.5130 13.35969634915762"}}, "geometry": {"type": "Point", "coordinates": [-147.7645741635818, -32.97900296209168]}}, {"type": "Feature", "properties": {"norad_id": 30619, "name": "FENGYUN 1C DEB", "group": "fengyun-1c-debris", "lat": -77.05559491449043, "lon": 41.0310816191918, "alt_km": 909.8566487569251, "timestamp": "2025-12-04T10:51:50.383028+00:00", "meta": {"OBJECT_NAME": "FENGYUN 1C DEB", "OBJECT_ID": "1999-025ANA", "EPOCH": "2025-12-03T00:14:54.062016", "MEAN_MOTION": 14.41055461, "ECCENTRICITY": 0.02162305, "INCLINATION": 98.2966, "RA_OF_ASC_NODE": 0.2211, "ARG_OF_PERICENTER": 87.7085, "MEAN_ANOMALY": 274.8844, "EPHEMERIS_TYPE": 0, "CLASSIFICATION_TYPE": "U", "NORAD_CAT_ID": 30619, "ELEMENT_SET_NO": 999, "REV_AT_EPOCH": 98809, "BSTAR": 0.00037075726, "MEAN_MOTION_DOT": 1.527e-05, "MEAN_MOTION_DDOT": 0}, "tle": {"line1": "1 30619U 99025ANA 25337.01034794  .00001527  00000+0  37076-3 0  9992", "line2": "2 30619  98.2966   0.2211 0216230  87.7085 274.8844 14.41055461988098"}}, "geometry": {"type": "Point", "coordinates": [41.0310816191918, -77.05559491449043]}}, {"type": "Feature", "properties": {"norad_id": 30621, "name": "FENGYUN 1C DEB", "group": "fengyun-1c-debris", "lat": -64.2807282866293, "lon": -59.24798030672951, "alt_km": 805.0443783674727, "timestamp": "2025-12-04T10:51:50.383039+00:00", "meta": {"OBJECT_NAME": "FENGYUN 1C DEB", "OBJECT_ID": "1999-025ANC", "EPOCH": "2025-11-27T20:21:54.624960", "MEAN_MOTION": 14.03618645, "ECCENTRICITY": 0.0139383, "INCLINATION": 98.6958, "RA_OF_ASC_NODE": 275.9086, "ARG_OF_PERICENTER": 347.9886, "MEAN_ANOMALY": 74.2301, "EPHEMERIS_TYPE": 0, "CLASSIFICATION_TYPE": "U", "NORAD_CAT_ID": 30621, "ELEMENT_SET_NO": 999, "REV_AT_EPOCH": 95381, "BSTAR": 0.0029279, "MEAN_MOTION_DOT": 4.971e-05, "MEAN_MOTION_DDOT": 0}, "tle": {"line1": "1 30621U 99025ANC 25331.84854890  .00004971  00000+0  29279-2 0  9998", "line2": "2 30621  98.6958 275.9086 0139383 347.9886  74.2301 14.03618645953819"}}, "geometry": {"type": "Point", "coordinates": [-59.24798030672951, -64.2807282866293]}}, {"type": "Feature", "properties": {"norad_id": 30622, "name": "FENGYUN 1C DEB", "group": "fengyun-1c-debris", "lat": 78.65700128497852, "lon": -88.07643568079128, "alt_km": 747.2079705060742, "timestamp": "2025-12-04T10:51:50.383049+00:00", "meta": {"OBJECT_NAME": "FENGYUN 1C DEB", "OBJECT_ID": "1999-025AND", "EPOCH": "2025-12-02T19:01:26.960160", "MEAN_MOTION": 14.30925232, "ECCENTRICITY": 0.0072686, "INCLINATION": 101.0022, "RA_OF_ASC_NODE": 345.7141, "ARG_OF_PERICENTER": 41.9931, "MEAN_ANOMALY": 137.8391, "EPHEMERIS_TYPE": 0, "CLASSIFICATION_TYPE": "U", "NORAD_CAT_ID": 30622, "ELEMENT_SET_NO": 999, "REV_AT_EPOCH": 68655, "BSTAR": 0.0042645251, "MEAN_MOTION_DOT": 0.0001149, "MEAN_MOTION_DDOT": 0}, "tle": {"line1": "1 30622U 99025AND 25336.79267315  .00011490  00000+0  42645-2 0  9994", "line2": "2 30622 101.0022 345.7141 0072686  41.9931 137.8391 14.30925232686555"}}, "geometry": {"type": "Point", "coordinates": [-88.07643568079128, 78.65700128497852]}}, {"type": "Feature", "properties": {"norad_id": 30623, "name": "FENGYUN 1C DEB", "group": "fengyun-1c-debris", "lat": 75.24637536014023, "lon": 122.2112539267561, "alt_km": 940.076324600258, "timestamp": "2025-12-04T10:51:50.383059+00:00", "meta": {"OBJECT_NAME": "FENGYUN 1C DEB", "OBJECT_ID": "1999-025ANE", "EPOCH": "2025-12-03T18:19:55.030368", "MEAN_MOTION": 13.29327945, "ECCENTRICITY": 0.04038536, "INCLINATION": 98.8232, "RA_OF_ASC_NODE": 157.7614, "ARG_OF_PERICENTER": 129.9644, "MEAN_ANOMALY": 256.8952, "EPHEMERIS_TYPE": 0, "CLASSIFICATION_TYPE": "U", "NORAD_CAT_ID": 30623, "ELEMENT_SET_NO": 999, "REV_AT_EPOCH": 91097, "BSTAR": 0.00077624217, "MEAN_MOTION_DOT": 5.3e-06, "MEAN_MOTION_DDOT": 0}, "tle": {"line1": "1 30623U 99025ANE 25337.76383137  .00000530  00000+0  77624-3 0  9993", "line2": "2 30623  98.8232 157.7614 0403853 129.9644 256.8952 13.29327945910975"}}, "geometry": {"type": "Point", "coordinates": [122.2112539267561, 75.24637536014023]}}, {"type": "Feature", "properties": {"norad_id": 30624, "name": "FENGYUN 1C DEB", "group": "fengyun-1c-debris", "lat": 8.673862970474927, "lon": -118.80002706434931, "alt_km": 697.2543302653594, "timestamp": "2025-12-04T10:51:50.383069+00:00", "meta": {"OBJECT_NAME": "FENGYUN 1C DEB", "OBJECT_ID": "1999-025ANF", "EPOCH": "2025-12-03T04:30:30.197664", "MEAN_MOTION": 14.61577195, "ECCENTRICITY": 0.00208618, "INCLINATION": 98.8872, "RA_OF_ASC_NODE": 58.4739, "ARG_OF_PERICENTER": 296.6352, "MEAN_ANOMALY": 63.271, "EPHEMERIS_TYPE": 0, "CLASSIFICATION_TYPE": "U", "NORAD_CAT_ID": 30624, "ELEMENT_SET_NO": 999, "REV_AT_EPOCH": 97356, "BSTAR": 0.0075868773, "MEAN_MOTION_DOT": 0.00037957, "MEAN_MOTION_DDOT": 0}, "tle": {"line1": "1 30624U 99025ANF 25337.18784951  .00037957  00000+0  75869-2 0  9990", "line2": "2 30624  98.8872  58.4739 0020861 296.6352  63.2710 14.61577195973560"}}, "geometry": {"type": "Point", "coordinates": [-118.80002706434931, 8.673862970474927]}}, {"type": "Feature", "properties": {"norad_id": 30625, "name": "FENGYUN 1C DEB", "group": "fengyun-1c-debris", "lat": 22.046227941786054, "lon": -69.60539535895037, "alt_km": 733.7087678679263, "timestamp": "2025-12-04T10:51:50.383079+00:00", "meta": {"OBJECT_NAME": "FENGYUN 1C DEB", "OBJECT_ID": "1999-025ANG", "EPOCH": "2025-12-03T03:06:00.878976", "MEAN_MOTION": 14.41036303, "ECCENTRICITY": 0.00515169, "INCLINATION": 98.9273, "RA_OF_ASC_NODE": 292.6629, "ARG_OF_PERICENTER": 330.7492, "MEAN_ANOMALY": 29.0813, "EPHEMERIS_TYPE": 0, "CLASSIFICATION_TYPE": "U", "NORAD_CAT_ID": 30625, "ELEMENT_SET_NO": 999, "REV_AT_EPOCH": 96554, "BSTAR": 0.0064541113, "MEAN_MOTION_DOT": 0.00021107, "MEAN_MOTION_DDOT": 0}, "tle": {"line1": "1 30625U 99025ANG 25337.12917684  .00021107  00000+0  64541-2 0  9991", "line2": "2 30625  98.9273 292.6629 0051516 330.7492  29.0813 14.41036303965545"}}, "geometry": {"type": "Point", "coordinates": [-69.60539535895037, 22.046227941786054]}}]}